NORAD_CAT_ID,OBJECT_NAME,OBJECT_TYPE,EPOCH,MEAN_MOTION,ECCENTRICITY,INCLINATION,RA_OF_ASC_NODE,ARG_OF_PERICENTER,MEAN_ANOMALY,BSTAR,MEAN_MOTION_DOT,MEAN_MOTION_DDOT,TLE_LINE0,TLE_LINE1,TLE_LINE2,SEMIMAJOR_AXIS,PERIOD,APOGEE,PERIGEE,DECAYED
54087.0,STARLINK-5184,PAYLOAD,2024-02-02 09:56:21,15.08849918,0.0001297,53.2168,173.9865,80.4522,279.6616,0.00011759,1.585e-05,0.0,0 STARLINK-5184,1 54087U 22136AN  24033.41413425  .00001585  00000-0  11759-3 0  9999,2 54087  53.2168 173.9865 0001297  80.4522 279.6616 15.08849918 71772,6917.85,95.437,540.612,538.818,0.0
54087.0,STARLINK-5184,PAYLOAD,2024-02-02 14:42:30,15.08851878,0.0001449,53.2165,173.0969,53.2008,306.9117,0.00014526,2.025e-05,0.0,0 STARLINK-5184,1 54087U 22136AN  24033.61285632  .00002025  00000-0  14526-3 0  9993,2 54087  53.2165 173.0969 0001449  53.2008 306.9117 15.08851878 71331,6917.844,95.437,540.711,538.707,0.0
54087.0,STARLINK-5184,PAYLOAD,2024-02-03 12:57:55,15.08838053,0.0001338,53.2169,168.9306,84.6248,275.4896,1.4781e-05,-5.3e-07,0.0,0 STARLINK-5184,1 54087U 22136AN  24034.54022705 -.00000053  00000-0  14781-4 0  9990,2 54087  53.2169 168.9306 0001338  84.6248 275.4896 15.08838053 71473,6917.886,95.438,540.677,538.826,0.0
54087.0,STARLINK-5184,PAYLOAD,2024-02-03 14:33:18,15.08839859,0.0001308,53.2152,168.6323,85.5133,274.6008,-1.8419e-06,-3.17e-06,0.0,0 STARLINK-5184,1 54087U 22136AN  24034.60646678 -.00000317  00000-0 -18419-5 0  9995,2 54087  53.2152 168.6323 0001308  85.5133 274.6008 15.08839859 71955,6917.881,95.438,540.651,538.841,0.0
54087.0,STARLINK-5184,PAYLOAD,2024-02-04 14:24:05,15.08846968,0.0001415,53.2182,164.1737,93.7951,266.3203,-3.3336e-06,-3.41e-06,0.0,0 STARLINK-5184,1 54087U 22136AN  24035.60006202 -.00000341  00000-0 -33336-5 0  9991,2 54087  53.2182 164.1737 0001415  93.7951 266.3203 15.08846968 71635,6917.859,95.437,540.703,538.745,0.0
54087.0,STARLINK-5184,PAYLOAD,2024-02-04 15:59:28,15.08849477,0.0001405,53.2182,163.8765,93.6899,266.4254,2.7328e-05,1.47e-06,0.0,0 STARLINK-5184,1 54087U 22136AN  24035.66629951  .00000147  00000-0  27328-4 0  9994,2 54087  53.2182 163.8765 0001405  93.6899 266.4254 15.08849477 72110,6917.851,95.437,540.688,538.744,0.0
54087.0,STARLINK-5184,PAYLOAD,2024-02-05 07:53:20,15.08830825,0.0001456,53.2174,160.9029,83.715,276.4008,8.6263e-05,1.085e-05,0.0,0 STARLINK-5184,1 54087U 22136AN  24036.32871132  .00001085  00000-0  86263-4 0  9993,2 54087  53.2174 160.9029 0001456  83.7150 276.4008 15.08830825 72214,6917.908,95.438,540.781,538.766,0.0
54087.0,STARLINK-5184,PAYLOAD,2024-02-05 14:14:53,15.08833385,0.0001378,53.2171,159.7137,88.9029,271.2121,0.00011419,1.53e-05,0.0,0 STARLINK-5184,1 54087U 22136AN  24036.59367112  .00001530  00000-0  11419-3 0  9995,2 54087  53.2171 159.7137 0001378  88.9029 271.2121 15.08833385 71786,6917.901,95.438,540.719,538.812,0.0
54087.0,STARLINK-5184,PAYLOAD,2024-02-05 15:50:16,15.08836756,0.0001245,53.2162,159.4164,79.7025,280.4107,0.00017564,2.508e-05,0.0,0 STARLINK-5184,1 54087U 22136AN  24036.65990971  .00002508  00000-0  17564-3 0  9990,2 54087  53.2162 159.4164 0001245  79.7025 280.4107 15.08836756 71792,6917.89,95.438,540.617,538.894,0.0
54087.0,STARLINK-5184,PAYLOAD,2024-02-06 07:44:07,15.08841238,0.0001392,53.2161,156.4433,81.9695,278.1455,0.00017644,2.521e-05,0.0,0 STARLINK-5184,1 54087U 22136AN  24037.32231021  .00002521  00000-0  17644-3 0  9993,2 54087  53.2161 156.4433 0001392  81.9695 278.1455 15.08841238 72363,6917.877,95.437,540.705,538.779,0.0
54087.0,STARLINK-5184,PAYLOAD,2024-02-06 14:05:39,15.0884745,0.0001417,53.2159,155.2542,78.9313,281.1838,0.00024946,3.685e-05,0.0,0 STARLINK-5184,1 54087U 22136AN  24037.58726731  .00003685  00000-0  24946-3 0  9993,2 54087  53.2159 155.2542 0001417  78.9313 281.1838 15.08847450 71932,6917.858,95.437,540.703,538.742,0.0
54087.0,STARLINK-5184,PAYLOAD,2024-02-07 13:56:27,15.08839927,0.0001388,53.216,150.7944,86.4355,273.6796,0.00011771,1.586e-05,0.0,0 STARLINK-5184,1 54087U 22136AN  24038.58087168  .00001586  00000-0  11771-3 0  9998,2 54087  53.2160 150.7944 0001388  86.4355 273.6796 15.08839927 72555,6917.881,95.438,540.706,538.785,0.0
54087.0,STARLINK-5184,PAYLOAD,2024-02-08 13:47:14,15.08847135,0.0001501,53.2167,146.3323,97.3345,262.7818,9.5068e-05,1.226e-05,0.0,0 STARLINK-5184,1 54087U 22136AN  24039.57446845  .00001226  00000-0  95068-4 0  9992,2 54087  53.2167 146.3323 0001501  97.3345 262.7818 15.08847135 72230,6917.859,95.437,540.762,538.685,0.0
54087.0,STARLINK-5184,PAYLOAD,2024-02-09 12:02:38,15.08844601,0.0001545,53.2168,142.1708,94.0019,266.115,0.00014917,2.087e-05,0.0,0 STARLINK-5184,1 54087U 22136AN  24040.50182956  .00002087  00000-0  14917-3 0  9996,2 54087  53.2168 142.1708 0001545  94.0019 266.1150 15.08844601 72841,6917.866,95.437,540.8,538.663,0.0
54087.0,STARLINK-5184,PAYLOAD,2024-02-10 11:53:25,15.08836799,0.000159,53.2169,137.7091,96.731,263.3863,-2.199e-05,-6.38e-06,0.0,0 STARLINK-5184,1 54087U 22136AN  24041.49543298 -.00000638  00000-0 -21990-4 0  9997,2 54087  53.2169 137.7091 0001590  96.7310 263.3863 15.08836799 72995,6917.89,95.438,540.855,538.655,0.0
54087.0,STARLINK-5184,PAYLOAD,2024-02-10 13:28:48,15.08840277,0.0001597,53.2173,137.4102,99.841,260.2763,8.8902e-06,-1.47e-06,0.0,0 STARLINK-5184,1 54087U 22136AN  24041.56167096 -.00000147  00000-0  88902-5 0  9994,2 54087  53.2173 137.4102 0001597  99.8410 260.2763 15.08840277 72533,6917.88,95.438,540.849,538.64,0.0
54087.0,STARLINK-5184,PAYLOAD,2024-02-10 15:04:11,15.08844335,0.0001498,53.2183,137.1138,90.8185,269.2979,9.0842e-05,1.158e-05,0.0,0 STARLINK-5184,1 54087U 22136AN  24041.62791032  .00001158  00000-0  90842-4 0  9991,2 54087  53.2183 137.1138 0001498  90.8185 269.2979 15.08844335 72548,6917.867,95.437,540.768,538.696,0.0
54087.0,STARLINK-5184,PAYLOAD,2024-02-11 13:19:35,15.08847812,0.0001654,53.2174,132.9466,101.988,258.1298,0.00014215,1.975e-05,0.0,0 STARLINK-5184,1 54087U 22136AN  24042.55526794  .00001975  00000-0  14215-3 0  9991,2 54087  53.2174 132.9466 0001654 101.9880 258.1298 15.08847812 72684,6917.857,95.437,540.866,538.577,0.0
54087.0,STARLINK-5184,PAYLOAD,2024-02-11 16:30:21,15.08852209,0.000171,53.2178,132.3541,99.6345,260.484,0.000336,5.065e-05,0.0,0 STARLINK-5184,1 54087U 22136AN  24042.68774813  .00005065  00000-0  33600-3 0  9995,2 54087  53.2178 132.3541 0001710  99.6345 260.4840 15.08852209 73178,6917.843,95.437,540.891,538.525,0.0
54087.0,STARLINK-5184,PAYLOAD,2024-02-12 11:34:59,15.08850096,0.0001601,53.217,128.7893,89.1932,270.9243,0.00021992,3.215e-05,0.0,0 STARLINK-5184,1 54087U 22136AN  24043.48262770  .00003215  00000-0  21992-3 0  9994,2 54087  53.2170 128.7893 0001601  89.1932 270.9243 15.08850096 73292,6917.85,95.437,540.822,538.607,0.0
54087.0,STARLINK-5184,PAYLOAD,2024-02-12 13:10:22,15.08852546,0.0001684,53.2169,128.4926,71.5024,288.6151,0.00029048,4.34e-05,0.0,0 STARLINK-5184,1 54087U 22136AN  24043.54886788  .00004340  00000-0  29048-3 0  9992,2 54087  53.2169 128.4926 0001684  71.5024 288.6151 15.08852546 72837,6917.842,95.437,540.872,538.542,0.0
54087.0,STARLINK-5184,PAYLOAD,2024-02-13 11:25:46,15.08835546,0.0001495,53.2158,124.3271,101.1086,259.0075,1.2457e-05,-9e-07,0.0,0 STARLINK-5184,1 54087U 22136AN  24044.47623492 -.00000090  00000-0  12457-4 0  9992,2 54087  53.2158 124.3271 0001495 101.1086 259.0075 15.08835546 73447,6917.894,95.438,540.793,538.725,0.0
54087.0,STARLINK-5184,PAYLOAD,2024-02-13 13:01:09,15.08839674,0.0001477,53.2157,124.0298,98.1167,261.9993,0.00015241,2.138e-05,0.0,0 STARLINK-5184,1 54087U 22136AN  24044.54247458  .00002138  00000-0  15241-3 0  9991,2 54087  53.2157 124.0298 0001477  98.1167 261.9993 15.08839674 72982,6917.881,95.438,540.768,538.725,0.0
54087.0,STARLINK-5184,PAYLOAD,2024-02-13 22:33:29,15.08827505,0.0001415,53.2142,122.2455,96.1496,263.9658,7.0709e-05,8.37e-06,0.0,0 STARLINK-5184,1 54087U 22136AN  24044.93992125  .00000837  00000-0  70709-4 0  9997,2 54087  53.2142 122.2455 0001415  96.1496 263.9658 15.08827505 73044,6917.919,95.438,540.762,538.805,0.0
54087.0,STARLINK-5184,PAYLOAD,2024-02-14 04:55:02,15.08827754,0.0001874,53.215,121.0598,74.2896,285.8302,3.4538e-05,2.61e-06,0.0,0 STARLINK-5184,1 54087U 22136AN  24045.20488814  .00000261  00000-0  34538-4 0  9994,2 54087  53.2150 121.0598 0001874  74.2896 285.8302 15.08827754 73559,6917.918,95.438,541.079,538.486,0.0
54087.0,STARLINK-5184,PAYLOAD,2024-02-14 11:16:34,15.08845589,0.0001238,53.216,119.8654,88.3327,271.7807,0.0003265,4.913e-05,0.0,0 STARLINK-5184,1 54087U 22136AN  24045.46983895  .00004913  00000-0  32650-3 0  9991,2 54087  53.2160 119.8654 0001238  88.3327 271.7807 15.08845589 73591,6917.863,95.437,540.585,538.872,0.0
54087.0,STARLINK-5184,PAYLOAD,2024-02-14 22:24:15,15.08860081,0.0001885,53.2164,117.7868,80.6533,279.4672,0.0005976,9.241e-05,0.0,0 STARLINK-5184,1 54087U 22136AN  24045.93351313  .00009241  00000-0  59760-3 0  9997,2 54087  53.2164 117.7868 0001885  80.6533 279.4672 15.08860081 73196,6917.819,95.436,540.988,538.38,0.0
54087.0,STARLINK-5184,PAYLOAD,2024-02-15 11:07:21,15.08838046,0.000188,53.2161,115.4065,98.9628,261.1577,9.8962e-05,1.287e-05,0.0,0 STARLINK-5184,1 54087U 22136AN  24046.46344188  .00001287  00000-0  98962-4 0  9998,2 54087  53.2161 115.4065 0001880  98.9628 261.1577 15.08838046 73276,6917.886,95.438,541.052,538.451,0.0
54087.0,STARLINK-5184,PAYLOAD,2024-02-16 14:08:54,15.08825747,0.0001486,53.2158,110.3504,89.6988,270.4174,-0.00052945,-8.701e-05,0.0,0 STARLINK-5184,1 54087U 22136AN  24047.58951472 -.00008701  00000-0 -52945-3 0  9992,2 54087  53.2158 110.3504 0001486  89.6988 270.4174 15.08825747 73441,6917.924,95.438,540.817,538.761,0.0
54087.0,STARLINK-5184,PAYLOAD,2024-02-17 10:48:51,15.09053371,0.0001027,53.2163,106.4861,94.4471,265.6638,0.0076189,0.00123827,0.0,0 STARLINK-5184,1 54087U 22136AN  24048.45060044  .00123827  00000-0  76189-2 0  9995,2 54087  53.2163 106.4861 0001027  94.4471 265.6638 15.09053371 74046,6917.228,95.424,539.804,538.383,0.0
